[{"OBJECT_ID":"2009-016A","OBJECT_NAME":"EUTE 10A (EUTE W2A)","NORAD_CAT_ID":"34710","OBJECT_TYPE":"PAYLOAD","PERIOD":"1436.117","INCLINATION":"0.0664","APOGEE":"35807.588","PERIGEE":"35766.418","ECCENTRICITY":"0.0004882","MEAN_MOTION":"1.00270335","TLE_LINE1":"1 34710U 09016A   16238.67960090  .00000041  00000-0  00000+0 0  9992","TLE_LINE2":"2 34710   0.0664 356.5461 0004882 158.2432  74.2210  1.00270335 27040","LAUNCH_DATE":"2009-04-03","LAUNCH_SITE":"TYURATAM MISSILE AND SPACE COMPLEX","OWNER":"EUROPEAN TELECOMMUNICATIONS SATELLITE ORGANIZATION (EUTELSAT)","ORBIT_TYPE":"Geosynchronous","OPERATIONAL_STATUS":"Operational","satInfo":{"lng":9.879485079670715,"lat":0.13142358725907827,"elevation":-8.441961462122869,"azimuth":305.1205149203293,"range":42644.03511055356,"height":35803.96432061469,"velocity":3.073406415734906},"x":51,"y":-289,"dx":3.027830327145324,"dy":-0.5273239102293032},{"OBJECT_ID":"2009-020B","OBJECT_NAME":"BLOCK DM-SL R/B","NORAD_CAT_ID":"34811","OBJECT_TYPE":"ROCKET BODY","PERIOD":"793.443","INCLINATION":"1.7499","APOGEE":"35473.278","PERIGEE":"8551.152","ECCENTRICITY":"0.4741422","MEAN_MOTION":"1.81487462","TLE_LINE1":"1 34811U 09020B   16239.50600978 -.00000141  00000-0  00000+0 0  9990","TLE_LINE2":"2 34811   1.7499 306.7989 4741422 252.9097  51.8898  1.81487462 48731","LAUNCH_DATE":"2009-04-20","LAUNCH_SITE":"SEA LAUNCH","OWNER":"SEA LAUNCH DEMO","ORBIT_TYPE":"Highly Elliptical Orbit","OPERATIONAL_STATUS":"N/A, derelict rocket body","satInfo":{"lng":66.2729381736347,"lat":-0.7469746516934155,"elevation":-11.74907955007141,"azimuth":248.72706182636531,"range":33304.637553594745,"height":26231.494185932315,"velocity":3.226026100984981},"x":201,"y":-87,"dx":1.2980890783829924,"dy":-2.953338644452944},{"OBJECT_ID":"2009-027A","OBJECT_NAME":"SES 7 (PROTOSTAR 2)","NORAD_CAT_ID":"34941","OBJECT_TYPE":"PAYLOAD","PERIOD":"1436.094","INCLINATION":"0.0294","APOGEE":"35795.252","PERIGEE":"35777.847","ECCENTRICITY":"0.0002064","MEAN_MOTION":"1.00271953","TLE_LINE1":"1 34941U 09027A   16238.89955451 -.00000373 +00000-0 +00000-0 0  9999","TLE_LINE2":"2 34941 000.0294 075.6521 0002064 162.6303 168.3877 01.00271953026711","LAUNCH_DATE":"2009-05-16","LAUNCH_SITE":"TYURATAM MISSILE AND SPACE COMPLEX","OWNER":"SOCIÉTÉ EUROPÉENNE DES SATELLITES","ORBIT_TYPE":"Geosynchronous","OPERATIONAL_STATUS":"Operational","satInfo":{"lng":49.26592314897619,"lat":0.06540432215133786,"elevation":-8.505817633840747,"azimuth":265.7340768510238,"range":42654.470941781765,"height":35807.1984819169,"velocity":3.073630958641815},"x":227,"y":-192,"dx":2.0056953965075035,"dy":-2.329032684689077},{"OBJECT_ID":"2009-032A","OBJECT_NAME":"MEASAT 3A","NORAD_CAT_ID":"35362","OBJECT_TYPE":"PAYLOAD","PERIOD":"1436.193","INCLINATION":"0.0369","APOGEE":"35797.894","PERIGEE":"35779.062","ECCENTRICITY":"0.0002233","MEAN_MOTION":"1.00265074","TLE_LINE1":"1 35362U 09032A   16238.35483297  .00000000  00000-0  10000-3 0  9998","TLE_LINE2":"2 35362   0.0369 222.3526 0002233 341.6319 349.2463  1.00265074 26316","LAUNCH_DATE":"2009-06-21","LAUNCH_SITE":"TYURATAM MISSILE AND SPACE COMPLEX","OWNER":"MALAYSIA","ORBIT_TYPE":"Geosynchronous","OPERATIONAL_STATUS":"Operational","satInfo":{"lng":58.8199741672996,"lat":-1.0049733415099875,"elevation":-9.552961926304306,"azimuth":256.1800258327004,"range":42757.62404553273,"height":35793.03103816041,"velocity":3.0741369705035226},"x":257,"y":-152,"dx":1.5915691989763867,"dy":-2.6300619000864294},{"OBJECT_ID":"2009-033A","OBJECT_NAME":"GOES 14","NORAD_CAT_ID":"35491","OBJECT_TYPE":"PAYLOAD","PERIOD":"1436.091","INCLINATION":"0.3753","APOGEE":"35819.417","PERIGEE":"35753.564","ECCENTRICITY":"0.0007809","MEAN_MOTION":"1.00272162","TLE_LINE1":"1 35491U 09033A   16239.36008667 -.00000120  00000-0  00000+0 0  9997","TLE_LINE2":"2 35491   0.3753 270.4492 0007809 291.1163 158.3937  1.00272162 26248","LAUNCH_DATE":"2009-06-27","LAUNCH_SITE":"AIR FORCE EASTERN TEST RANGE","OWNER":"UNITED STATES OF AMERICA","ORBIT_TYPE":"Geosynchronous","OPERATIONAL_STATUS":"Operational (spare)","satInfo":{"lng":-104.85768644411402,"lat":0.42397226345996886,"elevation":-8.16452457485572,"azimuth":59.85768644411398,"range":42569.96897816527,"height":35761.510265483405,"velocity":3.0765084925865627},"x":-290,"y":75,"dx":-0.7888753661026823,"dy":2.9736476189544723},{"OBJECT_ID":"2009-034A","OBJECT_NAME":"SIRIUS FM-5","NORAD_CAT_ID":"35493","OBJECT_TYPE":"PAYLOAD","PERIOD":"1436.109","INCLINATION":"0.0157","APOGEE":"35788.217","PERIGEE":"35785.484","ECCENTRICITY":"3.24e-05","MEAN_MOTION":"1.00270879","TLE_LINE1":"1 35493U 09034A   16239.28970964 -.00000229  00000-0  00000+0 0  9999","TLE_LINE2":"2 35493   0.0157 101.3910 0000324 295.7342 315.9766  1.00270879 26059","LAUNCH_DATE":"2009-06-30","LAUNCH_SITE":"TYURATAM MISSILE AND SPACE COMPLEX","OWNER":"UNITED STATES OF AMERICA","ORBIT_TYPE":"Geosynchronous","OPERATIONAL_STATUS":"Operational","satInfo":{"lng":-101.86613559488437,"lat":-0.1881761274859555,"elevation":-8.755558719557735,"azimuth":56.86613559488434,"range":42671.97238846541,"height":35796.79533432943,"velocity":3.074280211798427},"x":-294,"y":60,"dx":-0.6321513470649482,"dy":3.0085849655709165},{"OBJECT_ID":"2009-042A","OBJECT_NAME":"ASIASAT 5","NORAD_CAT_ID":"35696","OBJECT_TYPE":"PAYLOAD","PERIOD":"1436.125","INCLINATION":"0.0076","APOGEE":"35794.457","PERIGEE":"35779.859","ECCENTRICITY":"0.0001731","MEAN_MOTION":"1.00269783","TLE_LINE1":"1 35696U 09042A   16238.97690623 -.00000335 +00000-0 +00000-0 0  9998","TLE_LINE2":"2 35696 000.0076 184.0672 0001731 293.6575 309.1007 01.00269783025756","LAUNCH_DATE":"2009-08-11","LAUNCH_SITE":"TYURATAM MISSILE AND SPACE COMPLEX","OWNER":"ASIASAT CORP","ORBIT_TYPE":"Geosynchronous","OPERATIONAL_STATUS":"Operational","satInfo":{"lng":50.46605757902111,"lat":-0.005156957448728693,"elevation":-8.578522742074899,"azimuth":264.53394242097886,"range":42643.559476567156,"height":35788.3420573046,"velocity":3.0747024475556204},"x":231,"y":-187,"dx":1.9571564125493712,"dy":-2.3713569781501476},{"OBJECT_ID":"2009-044A","OBJECT_NAME":"JCSAT 12","NORAD_CAT_ID":"35755","OBJECT_TYPE":"PAYLOAD","PERIOD":"1436.031","INCLINATION":"0.0245","APOGEE":"35810.029","PERIGEE":"35760.605","ECCENTRICITY":"0.0005861","MEAN_MOTION":"1.00276349","TLE_LINE1":"1 35755U 09044A   16238.90252565  .00000000  00000-0  10000-3 0  9990","TLE_LINE2":"2 35755   0.0245  28.0313 0005861 291.9314 107.4948  1.00276349 25747","LAUNCH_DATE":"2009-08-21","LAUNCH_SITE":"FRENCH GUIANA","OWNER":"JAPAN","ORBIT_TYPE":"Geosynchronous","OPERATIONAL_STATUS":"Backup/Standby","satInfo":{"lng":112.98608718356064,"lat":0.9105838818181777,"elevation":-7.675868768961754,"azimuth":202.01391281643936,"range":42578.24438672478,"height":35823.91098678941,"velocity":3.072640785292711},"x":276,"y":114,"dx":-1.1998895660753002,"dy":-2.8286722016995602},{"OBJECT_ID":"2009-044B","OBJECT_NAME":"OPTUS D3","NORAD_CAT_ID":"35756","OBJECT_TYPE":"PAYLOAD","PERIOD":"1436.176","INCLINATION":"0.0399","APOGEE":"35798.971","PERIGEE":"35777.356","ECCENTRICITY":"0.0002563","MEAN_MOTION":"1.00266195","TLE_LINE1":"1 35756U 09044B   16238.69646267  .00000000  00000-0  10000-3 0  9993","TLE_LINE2":"2 35756   0.0399 353.0742 0002563 163.0726 224.9107  1.00266195 25714","LAUNCH_DATE":"2009-08-21","LAUNCH_SITE":"FRENCH GUIANA","OWNER":"AUSTRALIA","ORBIT_TYPE":"Geosynchronous","OPERATIONAL_STATUS":"Operational","satInfo":{"lng":-143.59760974683596,"lat":-0.3549055714742184,"elevation":-8.916293521081876,"azimuth":98.59760974683594,"range":42700.20465428437,"height":35806.87959725165,"velocity":3.074200305076195},"x":-178,"y":236,"dx":-2.474328649951098,"dy":1.8243917473398483},{"OBJECT_ID":"2009-044C","OBJECT_NAME":"ARIANE 5 R/B","NORAD_CAT_ID":"35757","OBJECT_TYPE":"ROCKET BODY","PERIOD":"599.077","INCLINATION":"1.73","APOGEE":"34072.678","PERIGEE":"252.059","ECCENTRICITY":"0.7183495","MEAN_MOTION":"2.40369373","TLE_LINE1":"1 35757U 09044C   16238.07918988 +.00001576 +00000-0 +51747-3 0  9990","TLE_LINE2":"2 35757 001.7300 121.3059 7183495 197.5431 111.8167 02.40369373059947","LAUNCH_DATE":"2009-08-21","LAUNCH_SITE":"FRENCH GUIANA","OWNER":"FRANCE","ORBIT_TYPE":"Highly Elliptical Orbit","OPERATIONAL_STATUS":"N/A, derelict rocket body","satInfo":{"lng":-29.854472901546046,"lat":1.1551161313957707,"elevation":-18.561166002080093,"azimuth":344.85447290154605,"range":18842.300399965872,"height":11487.691380506327,"velocity":5.241894196949607},"x":-48,"y":-82,"dx":4.546255902665474,"dy":2.609408369629657},{"OBJECT_ID":"2009-046A","OBJECT_NAME":"PALAPA D","NORAD_CAT_ID":"35812","OBJECT_TYPE":"PAYLOAD","PERIOD":"1436.202","INCLINATION":"0.0207","APOGEE":"35794.545","PERIGEE":"35782.797","ECCENTRICITY":"0.0001393","MEAN_MOTION":"1.00264385","TLE_LINE1":"1 35812U 09046A   16238.04372948  .00000000  00000-0  10000-3 0  9999","TLE_LINE2":"2 35812   0.0207  82.6054 0001393  66.0233 313.7534  1.00264385 25755","LAUNCH_DATE":"2009-08-31","LAUNCH_SITE":"Xichang Space Center, China","OWNER":"INDONESIA","ORBIT_TYPE":"Geosynchronous","OPERATIONAL_STATUS":"Operational","satInfo":{"lng":50.482134298786576,"lat":-0.16522947143117914,"elevation":-8.731552577586573,"azimuth":264.5178657012134,"range":42677.378195960795,"height":35804.80430652622,"velocity":3.0739696782678556},"x":231,"y":-187,"dx":1.9560246775749226,"dy":-2.371340769191156}]